{
  "type": "FeatureCollection",
  "features": [
    {
      "type": "Feature",
      "properties": {
        "norad_id": 54741,
        "name": "GALAXY 35 (G-35)",
        "group": "intelsat",
        "lat": 0.024580262345533323,
        "lon": 146.50314371221378,
        "alt_km": 35791.64409491296,
        "timestamp": "2025-12-22T09:53:37.074400+00:00",
        "meta_object_name": "GALAXY 35 (G-35)",
        "meta_object_id": "2022-170A",
        "meta_epoch": "2025-12-22T00:44:20.304384",
        "meta_mean_motion": 1.00271855,
        "meta_eccentricity": 0.000217,
        "meta_inclination": 0.017,
        "meta_ra_of_asc_node": 78.0068,
        "meta_arg_of_pericenter": 195.7585,
        "meta_mean_anomaly": 95.0692,
        "meta_ephemeris_type": 0,
        "meta_classification_type": "U",
        "meta_norad_cat_id": 54741,
        "meta_element_set_no": 999,
        "meta_rev_at_epoch": 1111,
        "meta_bstar": 0,
        "meta_mean_motion_dot": -1.4e-06,
        "meta_mean_motion_ddot": 0,
        "tle_line1": "1 54741U 22170A   25356.03079056 -.00000140  00000+0  00000+0 0  9998",
        "tle_line2": "2 54741   0.0170  78.0068 0002170 195.7585  95.0692  1.00271855 11114"
      },
      "geometry": {
        "type": "Point",
        "coordinates": [
          146.50314371221378,
          0.024580262345533323
        ]
      }
    },
    {
      "type": "Feature",
      "properties": {
        "norad_id": 54742,
        "name": "GALAXY 36 (G-36)",
        "group": "intelsat",
        "lat": 0.030634558603465423,
        "lon": 150.60810817041641,
        "alt_km": 35788.677636813816,
        "timestamp": "2025-12-22T09:53:37.074412+00:00",
        "meta_object_name": "GALAXY 36 (G-36)",
        "meta_object_id": "2022-170B",
        "meta_epoch": "2025-12-22T02:28:09.576768",
        "meta_mean_motion": 1.00268826,
        "meta_eccentricity": 4.36e-05,
        "meta_inclination": 0.0156,
        "meta_ra_of_asc_node": 40.8472,
        "meta_arg_of_pericenter": 306.8829,
        "meta_mean_anomaly": 51.2178,
        "meta_ephemeris_type": 0,
        "meta_classification_type": "U",
        "meta_norad_cat_id": 54742,
        "meta_element_set_no": 999,
        "meta_rev_at_epoch": 1099,
        "meta_bstar": 0,
        "meta_mean_motion_dot": 0,
        "meta_mean_motion_ddot": 0,
        "tle_line1": "1 54742U 22170B   25356.10288862  .00000000  00000+0  00000+0 0  9998",
        "tle_line2": "2 54742   0.0156  40.8472 0000436 306.8829  51.2178  1.00268826 10996"
      },
      "geometry": {
        "type": "Point",
        "coordinates": [
          150.60810817041641,
          0.030634558603465423
        ]
      }
    },
    {
      "type": "Feature",
      "properties": {
        "norad_id": 57493,
        "name": "GALAXY 37 (G-37)",
        "group": "intelsat",
        "lat": 0.032983813098506044,
        "lon": 112.59954753673632,
        "alt_km": 35794.088893411754,
        "timestamp": "2025-12-22T09:53:37.074423+00:00",
        "meta_object_name": "GALAXY 37 (G-37)",
        "meta_object_id": "2023-112A",
        "meta_epoch": "2025-12-22T02:44:32.462304",
        "meta_mean_motion": 1.00271223,
        "meta_eccentricity": 0.0001949,
        "meta_inclination": 0.0089,
        "meta_ra_of_asc_node": 28.4297,
        "meta_arg_of_pericenter": 246.5962,
        "meta_mean_anomaly": 90.0255,
        "meta_ephemeris_type": 0,
        "meta_classification_type": "U",
        "meta_norad_cat_id": 57493,
        "meta_element_set_no": 999,
        "meta_rev_at_epoch": 876,
        "meta_bstar": 0,
        "meta_mean_motion_dot": 7e-07,
        "meta_mean_motion_ddot": 0,
        "tle_line1": "1 57493U 23112A   25356.11426461  .00000070  00000+0  00000+0 0  9998",
        "tle_line2": "2 57493   0.0089  28.4297 0001949 246.5962  90.0255  1.00271223  8766"
      },
      "geometry": {
        "type": "Point",
        "coordinates": [
          112.59954753673632,
          0.032983813098506044
        ]
      }
    }
  ]
}